# From MPC106348
73P-BT/Schwassmann-Wachmann,e,10.6095,190.5410,77.7040,3.077942,0.1825212,0.69394208,215.4319,11/20.0/2025,2000,g 11.5,6.0
# From MPC188416
74P/Smirnova-Chernykh,e,6.0161,51.7357,59.7297,5.113195,0.0852443,0.05423814,348.3171,11/20.0/2025,2000,g  5.0,6.0
# From MPEC 2022-K19
76P/West-Kohoutek-Ikemura,e,30.4885,84.1097,0.0209,3.466793,0.1526906,0.53945442,337.9256,11/20.0/2025,2000,g  8.0,12.0
# From MPEC 2025-UQ3
77P/Longmore,e,24.3293,14.7478,196.5976,3.619755,0.1431151,0.35195882,137.6928,11/20.0/2025,2000,g  7.0,8.0
# From MPEC 2025-VD2
78P/Gehrels,e,6.2572,210.4972,192.7803,3.732856,0.1366603,0.46298977,330.3350,11/20.0/2025,2000,g  5.5,8.0
# From MPEC 2024-PC5
79P/duToit-Hartley,e,3.1488,280.4938,281.7579,2.942184,0.1952987,0.61948538,152.6474,11/20.0/2025,2000,g 16.0,4.0
# From MPEC 2024-Q20
80P/Peters-Hartley,e,29.9278,259.7710,339.2564,4.021114,0.1222319,0.59768774,131.7697,11/20.0/2025,2000,g  9.0,8.0
# From MPEC 2024-RQ6
81P/Wild,e,3.2386,136.1042,41.5442,3.451144,0.1537303,0.53783037,164.4878,11/20.0/2025,2000,g  7.0,6.0
# From MPC133426
82P/Gehrels,e,1.1294,239.2153,226.4417,4.132953,0.1173042,0.12310796,317.6964,11/20.0/2025,2000,g  5.0,8.0
# From MPEC 2020-FB5
84P/Giclas,e,7.5531,108.1403,281.6839,3.550034,0.1473517,0.51562092,293.7405,11/20.0/2025,2000,g  9.5,8.0
# From MPEC 2022-YB4
86P/Wild,e,15.4775,72.0895,181.0073,3.652213,0.1412115,0.36073919,196.3863,11/20.0/2025,2000,g 11.0,6.0
# From MPEC 2020-SI8
87P/Bus,e,2.6624,184.3596,51.7075,4.378204,0.1075871,0.21284694,227.7557,11/20.0/2025,2000,g  7.2,10.0
# From MPC188417
88P/Howell,e,4.3820,56.6694,235.8716,3.108869,0.1798045,0.56325901,338.6431,11/20.0/2025,2000,g 11.0,6.0
# From MPEC 2025-VD2
89P/Russell,e,12.0687,41.3429,250.4590,3.751486,0.1356435,0.40725013,81.8555,11/20.0/2025,2000,g 11.5,6.0
# From MPEC 2022-K19
90P/Gehrels,e,9.6363,13.1731,29.2087,6.055092,0.0661489,0.51036021,203.1599,11/20.0/2025,2000,g  8.5,6.0
# From MPEC 2023-VM5
91P/Russell,e,16.0155,242.1197,356.9690,4.156037,0.1163282,0.25279268,235.4725,11/20.0/2025,2000,g  7.5,6.0
# From MPEC 2014-J58
92P/Sanguin,e,19.4752,181.3558,163.7694,5.345233,0.0797543,0.65994990,311.9517,11/20.0/2025,2000,g 12.0,6.0
# From MPEC 2025-VD2
93P/Lovas,e,12.2104,339.5493,75.0384,4.372823,0.1077857,0.61387922,342.3298,11/20.0/2025,2000,g  9.5,6.0
# From MPC188417
94P/Russell,e,6.1873,70.8423,92.3771,3.509721,0.1498978,0.36615425,136.9535,11/20.0/2025,2000,g  9.0,6.0
# From MPC182887
96P/Machholz,e,57.5860,93.9625,14.7390,3.031034,0.1867746,0.96172534,191.1666,11/20.0/2025,2000,g 13.0,4.8
# From MPC106348
96P-B/Machholz,e,57.5070,14.5307,94.0479,3.029982,0.1868719,0.96175182,191.3111,11/20.0/2025,2000,g 13.0,4.8
# From MPEC 2024-GJ3
97P/Metcalf-Brewington,e,17.9339,184.0676,230.2256,4.770905,0.0945808,0.45974324,129.8754,11/20.0/2025,2000,g  5.5,6.0
# From MPEC 2021-W31
98P/Takamizawa,e,10.7668,114.4546,157.9065,3.767665,0.1347707,0.57344998,238.9502,11/20.0/2025,2000,g  9.0,8.0
# From MPEC 2024-R10
99P/Kowal,e,4.3393,28.0536,174.5098,6.093060,0.0655316,0.22891113,86.5706,11/20.0/2025,2000,g  4.5,6.0
# From MPC186635
100P/Hartley,e,25.5680,37.6858,181.9028,3.430244,0.1551374,0.41137666,185.8711,11/20.0/2025,2000,g  9.0,8.0
# From MPEC 2024-R10
101P/Chernykh,e,5.0485,116.1145,278.0049,5.818698,0.0702207,0.59531162,150.1599,11/20.0/2025,2000,g 10.0,4.8
# From MPEC 2022-C56
102P/Shoemaker,e,25.8503,339.3887,20.6679,3.820785,0.1319700,0.45581269,232.7978,11/20.0/2025,2000,g  6.5,8.0
# From MPC184417
103P/Hartley,e,13.6053,219.7604,181.3333,3.476050,0.1520810,0.69336342,117.0499,11/20.0/2025,2000,g  8.5,8.0
# From MPEC 2023-G31
104P/Kowal,e,5.7002,207.1695,227.3242,3.208547,0.1714910,0.66586260,241.3448,11/20.0/2025,2000,g 16.0,4.0
# From MPC188417
105P/SingerBrewster,e,9.1677,192.3886,46.3185,3.472751,0.1522978,0.40915684,45.8848,11/20.0/2025,2000,g 11.5,6.0
# From MPEC 2024-R10
106P/Schuster,e,19.5295,48.8659,353.8010,3.768649,0.1347180,0.59336310,209.3471,11/20.0/2025,2000,g 14.0,4.8
# From MPEC 2022-P82
108P/Ciffreo,e,11.4301,50.3011,354.5371,3.744187,0.1360404,0.55551463,208.3645,11/20.0/2025,2000,g  8.0,12.0
# From MPEC 2023-KD6
110P/Hartley,e,11.7119,287.4819,167.5831,3.603383,0.1440915,0.31925406,214.9870,11/20.0/2025,2000,g  1.0,12.0
# From MPC 75718
111P/Helin-Roman-Crockett,e,4.2261,89.8101,1.5036,4.153051,0.1164537,0.10715406,187.8937,11/20.0/2025,2000,g  5.0,8.0
# From MPEC 2021-S45
112P/Urata-Niijima,e,24.2015,31.8038,21.5685,3.521879,0.1491222,0.59079430,314.3937,11/20.0/2025,2000,g 14.0,6.0
# From MPEC 2024-JU4
113P/Spitaler,e,5.2878,306.6131,115.7599,3.696555,0.1386782,0.41951651,175.7351,11/20.0/2025,2000,g 13.5,4.0
# From MPEC 2023-A50
114P/Wiseman-Skiff,e,18.3036,271.0249,172.8305,3.539159,0.1480315,0.55613603,315.7424,11/20.0/2025,2000,g 11.5,6.0
# From MPEC 2023-J29
115P/Maury,e,11.6894,175.9375,120.9309,4.270222,0.1116936,0.51838606,216.9837,11/20.0/2025,2000,g 10.5,6.0
# From MPEC 2024-RQ6
116P/Wild,e,3.6050,20.9584,173.1499,3.485409,0.1514689,0.37091965,185.1048,11/20.0/2025,2000,g  2.5,10.0
# From MPC182887
117P/Helin-Roman-Alu,e,8.6619,58.7857,224.9220,4.123858,0.1176924,0.25084887,144.5614,11/20.0/2025,2000,g  2.5,8.0
# From MPC186635
118P/Shoemaker-Levy,e,10.0927,142.0464,314.9724,3.349059,0.1608125,0.45380083,175.4619,11/20.0/2025,2000,g 12.0,4.0
# From MPEC 2024-R10
119P/Parker-Hartley,e,7.3930,104.5404,322.2929,3.809900,0.1325359,0.38795594,158.4593,11/20.0/2025,2000,g  3.5,8.0
# From MPEC 2022-CN4
120P/Mueller,e,8.4800,358.6954,36.7973,3.970510,0.1245761,0.37393754,206.5083,11/20.0/2025,2000,g 12.0,4.0
# From MPC185663
121P/Shoemaker-Holt,e,20.1622,94.1045,12.0469,4.590528,0.1002098,0.18669710,87.4635,11/20.0/2025,2000,g  6.5,8.0
# From MPEC 2025-VD2
123P/West-Hartley,e,15.2867,45.8801,103.9299,3.885717,0.1286759,0.44462642,320.6126,11/20.0/2025,2000,g  4.0,10.0
# From MPEC 2025-VD2
124P/Mrkos,e,31.4019,359.9596,185.1091,3.377953,0.1587537,0.48640439,325.7745,11/20.0/2025,2000,g 13.5,2.8
# From MPEC 2024-UA9
125P/Spacewatch,e,9.9861,153.1516,87.0903,3.127346,0.1782133,0.51199058,110.9954,11/20.0/2025,2000,g 13.0,6.0
# From MPEC 2025-UQ3
126P/IRAS,e,45.8718,357.8569,356.5506,5.625896,0.0738612,0.69589414,64.1955,11/20.0/2025,2000,g  6.0,8.0
# From MPEC 2024-R10
127P/Holt-Olmstead,e,14.2930,13.6159,6.3394,3.454896,0.1534799,0.35854772,183.9099,11/20.0/2025,2000,g 11.0,6.0
# From MPEC 2025-VD2
128P/Shoemaker-Holt,e,4.3715,214.3070,210.5391,4.481217,0.1038987,0.32228957,335.1757,11/20.0/2025,2000,g  8.5,4.0
# From MPC185664
129P/Shoemaker-Levy,e,3.4412,184.8404,307.9863,4.294560,0.1107455,0.08598081,119.7880,11/20.0/2025,2000,g 11.0,4.0
# From MPC184417
130P/McNaught-Hughes,e,6.0403,70.1182,246.6776,3.396638,0.1574455,0.46107337,91.8068,11/20.0/2025,2000,g 10.0,6.0
# From MPEC 2025-VD2
131P/Mueller,e,7.3622,214.1328,179.2654,3.674000,0.1399572,0.34463573,347.7266,11/20.0/2025,2000,g 11.0,4.0
# From MPEC 2024-BE0
132P/Helin-Roman-Alu,e,5.3765,173.9691,216.5220,3.892969,0.1283166,0.56380215,188.4061,11/20.0/2025,2000,g 11.0,6.0
# From MPC 89012
134P/Kowal-Vavrova,e,4.3327,201.9863,18.6236,6.275987,0.0626875,0.58560064,265.3536,11/20.0/2025,2000,g 11.5,4.0
# From MPEC 2024-C04
135P/Shoemaker-Levy,e,6.0622,213.0180,22.3398,3.801959,0.1329514,0.29329205,176.1062,11/20.0/2025,2000,g  7.0,8.0
# From MPEC 2025-VD2
136P/Mueller,e,9.4275,137.4116,225.3952,4.187511,0.1150192,0.29334357,36.8338,11/20.0/2025,2000,g 11.0,4.0
# From MPEC 2023-J29
137P/Shoemaker-Levy,e,4.8590,232.9292,141.2059,4.524249,0.1024199,0.57276707,259.3665,11/20.0/2025,2000,g 11.0,4.0
# From MPC188417
138P/Shoemaker-Levy,e,10.0984,309.2191,95.7532,3.616165,0.1433282,0.53146609,342.1817,11/20.0/2025,2000,g 15.0,6.0
# From MPEC 2020-HN5
139P/Vaisala-Oterma,e,2.3373,242.1730,166.0264,4.512654,0.1028149,0.24821293,297.2756,11/20.0/2025,2000,g  9.5,4.0
# From MPEC 2015-E14
140P/Bowell-Skiff,e,3.6822,343.3591,172.1482,6.414707,0.0606651,0.69497553,229.8532,11/20.0/2025,2000,g 11.5,6.0
# From MPEC 2015-KD9
141P-A/Machholz,e,13.9423,153.4959,241.9360,3.056957,0.1844039,0.73585985,331.5365,11/20.0/2025,2000,g 12.0,12.0
# From MPC 37026
141P-D/Machholz,e,13.8340,153.2209,242.1847,3.065510,0.1836327,0.73680034,327.0185,11/20.0/2025,2000,g 12.0,12.0
# From MPC186636
141P-H/Machholz,e,14.0168,241.8497,153.6209,3.045745,0.1854230,0.73458859,335.3796,11/20.0/2025,2000,g 18.5,4.0
# From MPEC 2022-SU8
141P-I/Machholz,e,13.9423,153.4511,241.9456,3.047399,0.1852721,0.73508892,333.2052,11/20.0/2025,2000,g 17.5,4.0
# From MPEC 2024-C04
142P/Ge-Wang,e,12.2433,175.9624,174.0463,5.003581,0.0880608,0.49578023,145.6811,11/20.0/2025,2000,g  8.5,6.0
# From MPEC 2025-UQ3
143P/Kowal-Mrkos,e,5.4027,242.1606,304.6420,4.762755,0.0948237,0.37926595,321.8352,11/20.0/2025,2000,g 13.5,2.0
# From MPC181189
144P/Kushida,e,3.9313,242.9244,216.3755,3.834503,0.1312624,0.63494549,87.1777,11/20.0/2025,2000,g  8.5,8.0
# From MPEC 2025-VD2
145P/Shoemaker-Levy,e,11.2782,26.7668,10.4189,4.129354,0.1174575,0.54236901,351.4334,11/20.0/2025,2000,g 13.5,4.0
# From MPC184418
146P/Shoemaker-LINEAR,e,23.1168,53.3356,317.0237,4.023088,0.1221419,0.64759032,57.6038,11/20.0/2025,2000,g 15.0,4.0
# From MPEC 2024-UQ8
147P/Kushida-Muramatsu,e,2.3115,91.6674,348.6441,4.010294,0.1227269,0.21170325,87.5533,11/20.0/2025,2000,g 14.0,4.0
# From MPEC 2024-JU4
148P/Anderson-LINEAR,e,3.6588,89.1950,8.0925,3.620233,0.1430867,0.55039675,179.5020,11/20.0/2025,2000,g 16.0,2.0
# From MPEC 2023-J29
149P/Mueller,e,34.2461,143.7233,30.1347,4.133344,0.1172875,0.32455668,314.1392,11/20.0/2025,2000,g  8.0,8.0
# From MPEC 2024-NE4
150P/LONEOS,e,18.5482,272.0552,246.1244,3.872144,0.1293531,0.54931959,79.8624,11/20.0/2025,2000,g 13.5,4.0
# From MPEC 2022-K19
151P/Helin,e,4.7248,143.1093,216.1510,5.767537,0.0711571,0.57229633,262.7103,11/20.0/2025,2000,g 10.0,6.0
# From MPC182888
152P/Helin-Lawrence,e,9.8796,91.7763,164.4108,4.486212,0.1037252,0.30656037,145.9969,11/20.0/2025,2000,g 11.5,4.0
# From MPC184418
